CCSDS_OMM_VERS = 2.0
CREATION_DATE  = 
ORIGINATOR     = 

OBJECT_NAME    = SL-16 R/B
OBJECT_ID      = 1993-016B
CENTER_NAME    = EARTH
REF_FRAME      = TEME
TIME_SYSTEM    = UTC
MEAN_ELEMENT_THEORY = SGP/SGP4

EPOCH          = 2026-01-25T19:23:41.318304
MEAN_MOTION    = 14.15298427
ECCENTRICITY   = .0009345
INCLINATION    = 71.0087
RA_OF_ASC_NODE = 305.2481
ARG_OF_PERICENTER = 16.8594
MEAN_ANOMALY   = 343.2837

EPHEMERIS_TYPE = 0
CLASSIFICATION_TYPE = U
NORAD_CAT_ID   = 22566
ELEMENT_SET_NO = 999
REV_AT_EPOCH   = 69610
BSTAR          = .22672E-3
MEAN_MOTION_DOT = .394E-5
MEAN_MOTION_DDOT = 0

CCSDS_OMM_VERS = 2.0
CREATION_DATE  = 
ORIGINATOR     = 

OBJECT_NAME    = COSMOS 2242
OBJECT_ID      = 1993-024A
CENTER_NAME    = EARTH
REF_FRAME      = TEME
TIME_SYSTEM    = UTC
MEAN_ELEMENT_THEORY = SGP/SGP4

EPOCH          = 2026-01-25T18:35:29.631264
MEAN_MOTION    = 14.96345654
ECCENTRICITY   = .0018119
INCLINATION    = 82.5205
RA_OF_ASC_NODE = 307.7554
ARG_OF_PERICENTER = 89.0842
MEAN_ANOMALY   = 271.2456

EPHEMERIS_TYPE = 0
CLASSIFICATION_TYPE = U
NORAD_CAT_ID   = 22626
ELEMENT_SET_NO = 999
REV_AT_EPOCH   = 77397
BSTAR          = .32579E-3
MEAN_MOTION_DOT = .3723E-4
MEAN_MOTION_DDOT = 0

CCSDS_OMM_VERS = 2.0
CREATION_DATE  = 
ORIGINATOR     = 

OBJECT_NAME    = SL-16 R/B
OBJECT_ID      = 1993-059B
CENTER_NAME    = EARTH
REF_FRAME      = TEME
TIME_SYSTEM    = UTC
MEAN_ELEMENT_THEORY = SGP/SGP4

EPOCH          = 2026-01-25T15:12:57.301920
MEAN_MOTION    = 14.17223659
ECCENTRICITY   = .0019579
INCLINATION    = 70.9906
RA_OF_ASC_NODE = 101.9269
ARG_OF_PERICENTER = 275.1241
MEAN_ANOMALY   = 84.7648

EPHEMERIS_TYPE = 0
CLASSIFICATION_TYPE = U
NORAD_CAT_ID   = 22803
ELEMENT_SET_NO = 999
REV_AT_EPOCH   = 67343
BSTAR          = -.49249E-4
MEAN_MOTION_DOT = -.148E-5
MEAN_MOTION_DDOT = 0

CCSDS_OMM_VERS = 2.0
CREATION_DATE  = 
ORIGINATOR     = 

OBJECT_NAME    = ARIANE 40 R/B
OBJECT_ID      = 1993-061H
CENTER_NAME    = EARTH
REF_FRAME      = TEME
TIME_SYSTEM    = UTC
MEAN_ELEMENT_THEORY = SGP/SGP4

EPOCH          = 2026-01-25T14:42:28.380672
MEAN_MOTION    = 14.32835858
ECCENTRICITY   = .001154
INCLINATION    = 98.5006
RA_OF_ASC_NODE = 95.3309
ARG_OF_PERICENTER = 55.9447
MEAN_ANOMALY   = 304.2831

EPHEMERIS_TYPE = 0
CLASSIFICATION_TYPE = U
NORAD_CAT_ID   = 22830
ELEMENT_SET_NO = 999
REV_AT_EPOCH   = 68793
BSTAR          = .17864E-3
MEAN_MOTION_DOT = .444E-5
MEAN_MOTION_DDOT = 0

CCSDS_OMM_VERS = 2.0
CREATION_DATE  = 
ORIGINATOR     = 

OBJECT_NAME    = COSMOS 2278
OBJECT_ID      = 1994-023A
CENTER_NAME    = EARTH
REF_FRAME      = TEME
TIME_SYSTEM    = UTC
MEAN_ELEMENT_THEORY = SGP/SGP4

EPOCH          = 2026-01-25T16:02:08.695680
MEAN_MOTION    = 14.14367118
ECCENTRICITY   = .0006299
INCLINATION    = 71.0530
RA_OF_ASC_NODE = 265.1072
ARG_OF_PERICENTER = 95.4049
MEAN_ANOMALY   = 264.7792

EPHEMERIS_TYPE = 0
CLASSIFICATION_TYPE = U
NORAD_CAT_ID   = 23087
ELEMENT_SET_NO = 999
REV_AT_EPOCH   = 63872
BSTAR          = -.83966E-5
MEAN_MOTION_DOT = -.63E-6
MEAN_MOTION_DDOT = 0

CCSDS_OMM_VERS = 2.0
CREATION_DATE  = 
ORIGINATOR     = 

OBJECT_NAME    = SL-16 R/B
OBJECT_ID      = 1994-023B
CENTER_NAME    = EARTH
REF_FRAME      = TEME
TIME_SYSTEM    = UTC
MEAN_ELEMENT_THEORY = SGP/SGP4

EPOCH          = 2026-01-25T17:37:10.125408
MEAN_MOTION    = 14.15006875
ECCENTRICITY   = .0004134
INCLINATION    = 71.0003
RA_OF_ASC_NODE = 161.0973
ARG_OF_PERICENTER = 325.3749
MEAN_ANOMALY   = 34.7104

EPHEMERIS_TYPE = 0
CLASSIFICATION_TYPE = U
NORAD_CAT_ID   = 23088
ELEMENT_SET_NO = 999
REV_AT_EPOCH   = 64001
BSTAR          = -.28223E-4
MEAN_MOTION_DOT = -.102E-5
MEAN_MOTION_DDOT = 0

CCSDS_OMM_VERS = 2.0
CREATION_DATE  = 
ORIGINATOR     = 

OBJECT_NAME    = SL-16 R/B
OBJECT_ID      = 1994-074B
CENTER_NAME    = EARTH
REF_FRAME      = TEME
TIME_SYSTEM    = UTC
MEAN_ELEMENT_THEORY = SGP/SGP4

EPOCH          = 2026-01-25T20:45:16.265376
MEAN_MOTION    = 14.79352148
ECCENTRICITY   = .0006793
INCLINATION    = 97.7162
RA_OF_ASC_NODE = 58.4071
ARG_OF_PERICENTER = 13.7111
MEAN_ANOMALY   = 159.0623

EPHEMERIS_TYPE = 0
CLASSIFICATION_TYPE = U
NORAD_CAT_ID   = 23343
ELEMENT_SET_NO = 999
REV_AT_EPOCH   = 68091
BSTAR          = .12195E-3
MEAN_MOTION_DOT = .859E-5
MEAN_MOTION_DDOT = 0

CCSDS_OMM_VERS = 2.0
CREATION_DATE  = 
ORIGINATOR     = 

OBJECT_NAME    = SL-16 R/B
OBJECT_ID      = 1994-077B
CENTER_NAME    = EARTH
REF_FRAME      = TEME
TIME_SYSTEM    = UTC
MEAN_ELEMENT_THEORY = SGP/SGP4

EPOCH          = 2026-01-25T14:11:20.074848
MEAN_MOTION    = 14.15558876
ECCENTRICITY   = .0004821
INCLINATION    = 70.9828
RA_OF_ASC_NODE = 83.1628
ARG_OF_PERICENTER = 250.8343
MEAN_ANOMALY   = 109.2258

EPHEMERIS_TYPE = 0
CLASSIFICATION_TYPE = U
NORAD_CAT_ID   = 23405
ELEMENT_SET_NO = 999
REV_AT_EPOCH   = 61013
BSTAR          = -.2927E-4
MEAN_MOTION_DOT = -.105E-5
MEAN_MOTION_DDOT = 0

CCSDS_OMM_VERS = 2.0
CREATION_DATE  = 
ORIGINATOR     = 

OBJECT_NAME    = ARIANE 40+ R/B
OBJECT_ID      = 1995-021B
CENTER_NAME    = EARTH
REF_FRAME      = TEME
TIME_SYSTEM    = UTC
MEAN_ELEMENT_THEORY = SGP/SGP4

EPOCH          = 2026-01-25T16:15:22.666752
MEAN_MOTION    = 14.39737656
ECCENTRICITY   = .0005616
INCLINATION    = 98.4583
RA_OF_ASC_NODE = 97.7236
ARG_OF_PERICENTER = 270.0821
MEAN_ANOMALY   = 243.2353

EPHEMERIS_TYPE = 0
CLASSIFICATION_TYPE = U
NORAD_CAT_ID   = 23561
ELEMENT_SET_NO = 999
REV_AT_EPOCH   = 61305
BSTAR          = .19719E-3
MEAN_MOTION_DOT = .574E-5
MEAN_MOTION_DDOT = 0

CCSDS_OMM_VERS = 2.0
CREATION_DATE  = 
ORIGINATOR     = 

OBJECT_NAME    = SL-16 R/B
OBJECT_ID      = 1995-058B
CENTER_NAME    = EARTH
REF_FRAME      = TEME
TIME_SYSTEM    = UTC
MEAN_ELEMENT_THEORY = SGP/SGP4

EPOCH          = 2026-01-25T16:00:05.330304
MEAN_MOTION    = 14.15488458
ECCENTRICITY   = .0013089
INCLINATION    = 71.0203
RA_OF_ASC_NODE = 270.5822
ARG_OF_PERICENTER = 195.4224
MEAN_ANOMALY   = 164.6502

EPHEMERIS_TYPE = 0
CLASSIFICATION_TYPE = U
NORAD_CAT_ID   = 23705
ELEMENT_SET_NO = 999
REV_AT_EPOCH   = 56176
BSTAR          = -.69472E-4
MEAN_MOTION_DOT = -.183E-5
MEAN_MOTION_DDOT = 0

CCSDS_OMM_VERS = 2.0
CREATION_DATE  = 
ORIGINATOR     = 

OBJECT_NAME    = SL-16 R/B
OBJECT_ID      = 1996-051B
CENTER_NAME    = EARTH
REF_FRAME      = TEME
TIME_SYSTEM    = UTC
MEAN_ELEMENT_THEORY = SGP/SGP4

EPOCH          = 2026-01-25T02:45:35.699328
MEAN_MOTION    = 14.12403474
ECCENTRICITY   = .00184802
INCLINATION    = 70.7578
RA_OF_ASC_NODE = 267.4733
ARG_OF_PERICENTER = 207.5879
MEAN_ANOMALY   = 152.4262

EPHEMERIS_TYPE = 0
CLASSIFICATION_TYPE = U
NORAD_CAT_ID   = 24298
ELEMENT_SET_NO = 999
REV_AT_EPOCH   = 51549
BSTAR          = .72043152E-4
MEAN_MOTION_DOT = .84E-6
MEAN_MOTION_DDOT = 0

CCSDS_OMM_VERS = 2.0
CREATION_DATE  = 
ORIGINATOR     = 

OBJECT_NAME    = ORBVIEW 2 (SEASTAR)
OBJECT_ID      = 1997-037A
CENTER_NAME    = EARTH
REF_FRAME      = TEME
TIME_SYSTEM    = UTC
MEAN_ELEMENT_THEORY = SGP/SGP4

EPOCH          = 2026-01-25T09:52:06.174912
MEAN_MOTION    = 14.35457904
ECCENTRICITY   = .00023507
INCLINATION    = 98.8494
RA_OF_ASC_NODE = 188.5946
ARG_OF_PERICENTER = 163.7987
MEAN_ANOMALY   = 196.3273

EPHEMERIS_TYPE = 0
CLASSIFICATION_TYPE = U
NORAD_CAT_ID   = 24883
ELEMENT_SET_NO = 999
REV_AT_EPOCH   = 50226
BSTAR          = .23237094E-3
MEAN_MOTION_DOT = .621E-5
MEAN_MOTION_DDOT = 0

